DELTA 2 R/B(1)          
1 20453U 90008B   26035.08700045  .00066437  00000+0  89140-3 0  9991
2 20453  35.6065  34.5926 0096911 305.8521  53.3243 15.51312980920905
COSMOS 2058             
1 20465U 90010A   26035.14279539  .00004165  00000+0  24732-3 0  9999
2 20465  82.4633  80.4764 0012113  90.4761 269.7857 15.11008239937170
SL-14 R/B               
1 20466U 90010B   26035.16564096  .00000548  00000+0  63386-4 0  9997
2 20466  82.5035 298.8783 0021135  53.0696 307.2451 14.83537946923511
SL-14 R/B               
1 20511U 90018B   26035.08357786  .00000435  00000+0  51647-4 0  9995
2 20511  82.5187 254.5082 0015830 197.9382 162.1275 14.82109613917606
HST                     
1 20580U 90037B   26035.00659073  .00008870  00000+0  29857-3 0  9996
2 20580  28.4666 269.6866 0002008  97.1099 262.9725 15.28939114768150
SL-16 R/B               
1 20625U 90046B   26035.18926049 -.00000048  00000+0 -36282-6 0  9999
2 20625  70.9996   8.2675 0014501 346.1320  13.9402 14.15004928843654
COSMOS 2084             
1 20663U 90055A   26035.18013026  .00002897  00000+0  21378-3 0  9992
2 20663  62.7896  89.8493 0022458 183.0993 176.9972 15.05430600931279
SL-6 R/B(2)             
1 20666U 90055D   26035.18401169  .00003290  00000+0  25420-3 0  9994
2 20666  62.7849   7.7746 0019801 337.1801  22.8416 15.03407378933153
SL-8 R/B                
1 20775U 90078B   26035.16538929  .00016660  00000+0  49277-3 0  9994
2 20775  82.9030 281.4322 0367432 126.3077 237.2671 14.87938950804316
SL-8 R/B                
1 21088U 91006B   26035.23415468  .00000002  00000+0 -13370-4 0  9994
2 21088  82.9427 194.9200 0023456 127.3511  46.3000 13.77491844759460
OKEAN-3                 
1 21397U 91039A   26034.89622293  .00003803  00000+0  26874-3 0  9993
2 21397  82.5180   9.5715 0016303  86.8376 273.4716 15.04531650859952
COSMOS 2151             
1 21422U 91042A   26035.19653497  .00001840  00000+0  14577-3 0  9996
2 21422  82.4971 115.9829 0012983 166.2899 193.8681 14.99971308858179
