CCSDS_OMM_VERS = 2.0
CREATION_DATE  = 
ORIGINATOR     = 

OBJECT_NAME    = DELTA 2 R/B(1)
OBJECT_ID      = 1990-008B
CENTER_NAME    = EARTH
REF_FRAME      = TEME
TIME_SYSTEM    = UTC
MEAN_ELEMENT_THEORY = SGP/SGP4

EPOCH          = 2026-02-04T02:05:16.838880
MEAN_MOTION    = 15.51312980
ECCENTRICITY   = .0096911
INCLINATION    = 35.6065
RA_OF_ASC_NODE = 34.5926
ARG_OF_PERICENTER = 305.8521
MEAN_ANOMALY   = 53.3243

EPHEMERIS_TYPE = 0
CLASSIFICATION_TYPE = U
NORAD_CAT_ID   = 20453
ELEMENT_SET_NO = 999
REV_AT_EPOCH   = 92090
BSTAR          = .8914E-3
MEAN_MOTION_DOT = .66437E-3
MEAN_MOTION_DDOT = 0

CCSDS_OMM_VERS = 2.0
CREATION_DATE  = 
ORIGINATOR     = 

OBJECT_NAME    = COSMOS 2058
OBJECT_ID      = 1990-010A
CENTER_NAME    = EARTH
REF_FRAME      = TEME
TIME_SYSTEM    = UTC
MEAN_ELEMENT_THEORY = SGP/SGP4

EPOCH          = 2026-02-04T03:25:37.521696
MEAN_MOTION    = 15.11008239
ECCENTRICITY   = .0012113
INCLINATION    = 82.4633
RA_OF_ASC_NODE = 80.4764
ARG_OF_PERICENTER = 90.4761
MEAN_ANOMALY   = 269.7857

EPHEMERIS_TYPE = 0
CLASSIFICATION_TYPE = U
NORAD_CAT_ID   = 20465
ELEMENT_SET_NO = 999
REV_AT_EPOCH   = 93717
BSTAR          = .24732E-3
MEAN_MOTION_DOT = .4165E-4
MEAN_MOTION_DDOT = 0

CCSDS_OMM_VERS = 2.0
CREATION_DATE  = 
ORIGINATOR     = 

OBJECT_NAME    = SL-14 R/B
OBJECT_ID      = 1990-010B
CENTER_NAME    = EARTH
REF_FRAME      = TEME
TIME_SYSTEM    = UTC
MEAN_ELEMENT_THEORY = SGP/SGP4

EPOCH          = 2026-02-04T03:58:31.378944
MEAN_MOTION    = 14.83537946
ECCENTRICITY   = .0021135
INCLINATION    = 82.5035
RA_OF_ASC_NODE = 298.8783
ARG_OF_PERICENTER = 53.0696
MEAN_ANOMALY   = 307.2451

EPHEMERIS_TYPE = 0
CLASSIFICATION_TYPE = U
NORAD_CAT_ID   = 20466
ELEMENT_SET_NO = 999
REV_AT_EPOCH   = 92351
BSTAR          = .63386E-4
MEAN_MOTION_DOT = .548E-5
MEAN_MOTION_DDOT = 0

CCSDS_OMM_VERS = 2.0
CREATION_DATE  = 
ORIGINATOR     = 

OBJECT_NAME    = SL-14 R/B
OBJECT_ID      = 1990-018B
CENTER_NAME    = EARTH
REF_FRAME      = TEME
TIME_SYSTEM    = UTC
MEAN_ELEMENT_THEORY = SGP/SGP4

EPOCH          = 2026-02-04T02:00:21.127104
MEAN_MOTION    = 14.82109613
ECCENTRICITY   = .001583
INCLINATION    = 82.5187
RA_OF_ASC_NODE = 254.5082
ARG_OF_PERICENTER = 197.9382
MEAN_ANOMALY   = 162.1275

EPHEMERIS_TYPE = 0
CLASSIFICATION_TYPE = U
NORAD_CAT_ID   = 20511
ELEMENT_SET_NO = 999
REV_AT_EPOCH   = 91760
BSTAR          = .51647E-4
MEAN_MOTION_DOT = .435E-5
MEAN_MOTION_DDOT = 0

CCSDS_OMM_VERS = 2.0
CREATION_DATE  = 
ORIGINATOR     = 

OBJECT_NAME    = HST
OBJECT_ID      = 1990-037B
CENTER_NAME    = EARTH
REF_FRAME      = TEME
TIME_SYSTEM    = UTC
MEAN_ELEMENT_THEORY = SGP/SGP4

EPOCH          = 2026-02-04T00:09:29.439072
MEAN_MOTION    = 15.28939114
ECCENTRICITY   = .0002008
INCLINATION    = 28.4666
RA_OF_ASC_NODE = 269.6866
ARG_OF_PERICENTER = 97.1099
MEAN_ANOMALY   = 262.9725

EPHEMERIS_TYPE = 0
CLASSIFICATION_TYPE = U
NORAD_CAT_ID   = 20580
ELEMENT_SET_NO = 999
REV_AT_EPOCH   = 76815
BSTAR          = .29857E-3
MEAN_MOTION_DOT = .887E-4
MEAN_MOTION_DDOT = 0

CCSDS_OMM_VERS = 2.0
CREATION_DATE  = 
ORIGINATOR     = 

OBJECT_NAME    = SL-16 R/B
OBJECT_ID      = 1990-046B
CENTER_NAME    = EARTH
REF_FRAME      = TEME
TIME_SYSTEM    = UTC
MEAN_ELEMENT_THEORY = SGP/SGP4

EPOCH          = 2026-02-04T04:32:32.106336
MEAN_MOTION    = 14.15004928
ECCENTRICITY   = .0014501
INCLINATION    = 70.9996
RA_OF_ASC_NODE = 8.2675
ARG_OF_PERICENTER = 346.1320
MEAN_ANOMALY   = 13.9402

EPHEMERIS_TYPE = 0
CLASSIFICATION_TYPE = U
NORAD_CAT_ID   = 20625
ELEMENT_SET_NO = 999
REV_AT_EPOCH   = 84365
BSTAR          = -.36282E-6
MEAN_MOTION_DOT = -.48E-6
MEAN_MOTION_DDOT = 0

CCSDS_OMM_VERS = 2.0
CREATION_DATE  = 
ORIGINATOR     = 

OBJECT_NAME    = COSMOS 2084
OBJECT_ID      = 1990-055A
CENTER_NAME    = EARTH
REF_FRAME      = TEME
TIME_SYSTEM    = UTC
MEAN_ELEMENT_THEORY = SGP/SGP4

EPOCH          = 2026-02-04T04:19:23.254464
MEAN_MOTION    = 15.05430600
ECCENTRICITY   = .0022458
INCLINATION    = 62.7896
RA_OF_ASC_NODE = 89.8493
ARG_OF_PERICENTER = 183.0993
MEAN_ANOMALY   = 176.9972

EPHEMERIS_TYPE = 0
CLASSIFICATION_TYPE = U
NORAD_CAT_ID   = 20663
ELEMENT_SET_NO = 999
REV_AT_EPOCH   = 93127
BSTAR          = .21378E-3
MEAN_MOTION_DOT = .2897E-4
MEAN_MOTION_DDOT = 0

CCSDS_OMM_VERS = 2.0
CREATION_DATE  = 
ORIGINATOR     = 

OBJECT_NAME    = SL-6 R/B(2)
OBJECT_ID      = 1990-055D
CENTER_NAME    = EARTH
REF_FRAME      = TEME
TIME_SYSTEM    = UTC
MEAN_ELEMENT_THEORY = SGP/SGP4

EPOCH          = 2026-02-04T04:24:58.610016
MEAN_MOTION    = 15.03407378
ECCENTRICITY   = .0019801
INCLINATION    = 62.7849
RA_OF_ASC_NODE = 7.7746
ARG_OF_PERICENTER = 337.1801
MEAN_ANOMALY   = 22.8416

EPHEMERIS_TYPE = 0
CLASSIFICATION_TYPE = U
NORAD_CAT_ID   = 20666
ELEMENT_SET_NO = 999
REV_AT_EPOCH   = 93315
BSTAR          = .2542E-3
MEAN_MOTION_DOT = .329E-4
MEAN_MOTION_DDOT = 0

CCSDS_OMM_VERS = 2.0
CREATION_DATE  = 
ORIGINATOR     = 

OBJECT_NAME    = SL-8 R/B
OBJECT_ID      = 1990-078B
CENTER_NAME    = EARTH
REF_FRAME      = TEME
TIME_SYSTEM    = UTC
MEAN_ELEMENT_THEORY = SGP/SGP4

EPOCH          = 2026-02-04T03:58:09.634656
MEAN_MOTION    = 14.87938950
ECCENTRICITY   = .0367432
INCLINATION    = 82.9030
RA_OF_ASC_NODE = 281.4322
ARG_OF_PERICENTER = 126.3077
MEAN_ANOMALY   = 237.2671

EPHEMERIS_TYPE = 0
CLASSIFICATION_TYPE = U
NORAD_CAT_ID   = 20775
ELEMENT_SET_NO = 999
REV_AT_EPOCH   = 80431
BSTAR          = .49277E-3
MEAN_MOTION_DOT = .1666E-3
MEAN_MOTION_DDOT = 0

CCSDS_OMM_VERS = 2.0
CREATION_DATE  = 
ORIGINATOR     = 

OBJECT_NAME    = SL-8 R/B
OBJECT_ID      = 1991-006B
CENTER_NAME    = EARTH
REF_FRAME      = TEME
TIME_SYSTEM    = UTC
MEAN_ELEMENT_THEORY = SGP/SGP4

EPOCH          = 2026-02-04T05:37:10.964352
MEAN_MOTION    = 13.77491844
ECCENTRICITY   = .0023456
INCLINATION    = 82.9427
RA_OF_ASC_NODE = 194.9200
ARG_OF_PERICENTER = 127.3511
MEAN_ANOMALY   = 46.3000

EPHEMERIS_TYPE = 0
CLASSIFICATION_TYPE = U
NORAD_CAT_ID   = 21088
ELEMENT_SET_NO = 999
REV_AT_EPOCH   = 75946
BSTAR          = -.1337E-4
MEAN_MOTION_DOT = .2E-7
MEAN_MOTION_DDOT = 0

CCSDS_OMM_VERS = 2.0
CREATION_DATE  = 
ORIGINATOR     = 

OBJECT_NAME    = OKEAN-3
OBJECT_ID      = 1991-039A
CENTER_NAME    = EARTH
REF_FRAME      = TEME
TIME_SYSTEM    = UTC
MEAN_ELEMENT_THEORY = SGP/SGP4

EPOCH          = 2026-02-03T21:30:33.661152
MEAN_MOTION    = 15.04531650
ECCENTRICITY   = .0016303
INCLINATION    = 82.5180
RA_OF_ASC_NODE = 9.5715
ARG_OF_PERICENTER = 86.8376
MEAN_ANOMALY   = 273.4716

EPHEMERIS_TYPE = 0
CLASSIFICATION_TYPE = U
NORAD_CAT_ID   = 21397
ELEMENT_SET_NO = 999
REV_AT_EPOCH   = 85995
BSTAR          = .26874E-3
MEAN_MOTION_DOT = .3803E-4
MEAN_MOTION_DDOT = 0

CCSDS_OMM_VERS = 2.0
CREATION_DATE  = 
ORIGINATOR     = 

OBJECT_NAME    = COSMOS 2151
OBJECT_ID      = 1991-042A
CENTER_NAME    = EARTH
REF_FRAME      = TEME
TIME_SYSTEM    = UTC
MEAN_ELEMENT_THEORY = SGP/SGP4

EPOCH          = 2026-02-04T04:43:00.621408
MEAN_MOTION    = 14.99971308
ECCENTRICITY   = .0012983
INCLINATION    = 82.4971
RA_OF_ASC_NODE = 115.9829
ARG_OF_PERICENTER = 166.2899
MEAN_ANOMALY   = 193.8681

EPHEMERIS_TYPE = 0
CLASSIFICATION_TYPE = U
NORAD_CAT_ID   = 21422
ELEMENT_SET_NO = 999
REV_AT_EPOCH   = 85817
BSTAR          = .14577E-3
MEAN_MOTION_DOT = .184E-4
MEAN_MOTION_DDOT = 0

